NORAD_CAT_ID,OBJECT_NAME,OBJECT_TYPE,EPOCH,MEAN_MOTION,ECCENTRICITY,INCLINATION,RA_OF_ASC_NODE,ARG_OF_PERICENTER,MEAN_ANOMALY,BSTAR,MEAN_MOTION_DOT,MEAN_MOTION_DDOT,TLE_LINE0,TLE_LINE1,TLE_LINE2,SEMIMAJOR_AXIS,PERIOD,APOGEE,PERIGEE,DECAYED
52621.0,STARLINK-3984,PAYLOAD,2024-08-05 13:02:48,15.08856254,0.0001568,53.2182,357.9898,99.9158,260.2012,0.0010323,0.00016186,0.0,0 STARLINK-3984,1 52621U 22052Z   24218.54361703  .00016186  00000-0  10323-2 0  9996,2 52621  53.2182 357.9898 0001568  99.9158 260.2012 15.08856254123631,6917.831,95.437,540.78,538.611,0.0
52621.0,STARLINK-3984,PAYLOAD,2024-08-05 16:13:34,15.08846468,0.0001346,53.2181,357.3949,76.739,283.3752,0.00055209,8.511e-05,0.0,0 STARLINK-3984,1 52621U 22052Z   24218.67609677  .00008511  00000-0  55209-3 0  9991,2 52621  53.2181 357.3949 0001346  76.7390 283.3752 15.08846468123651,6917.861,95.437,540.657,538.794,0.0
52621.0,STARLINK-3984,PAYLOAD,2024-08-06 14:28:59,15.08824395,0.0001562,53.2189,353.2332,100.1698,259.947,0.00021893,3.197e-05,0.0,0 STARLINK-3984,1 52621U 22052Z   24219.60346311  .00003197  00000-0  21893-3 0  9995,2 52621  53.2189 353.2332 0001562 100.1698 259.9470 15.08824395123418,6917.928,95.439,540.874,538.713,0.0
52621.0,STARLINK-3984,PAYLOAD,2024-08-06 19:15:08,15.08827081,0.0001392,53.218,352.3403,95.4593,264.6558,0.001741,0.00027519,0.0,0 STARLINK-3984,1 52621U 22052Z   24219.80218676  .00027519  00000-0  17410-2 0  9992,2 52621  53.2180 352.3403 0001392  95.4593 264.6558 15.08827081123829,6917.92,95.438,540.748,538.822,0.0
52621.0,STARLINK-3984,PAYLOAD,2024-08-07 12:44:23,15.08847951,0.0001416,53.2173,349.0677,99.9035,260.2117,0.0011972,0.00018821,0.0,0 STARLINK-3984,1 52621U 22052Z   24220.53082930  .00018821  00000-0  11972-2 0  9999,2 52621  53.2173 349.0677 0001416  99.9035 260.2117 15.08847951123937,6917.856,95.437,540.701,538.742,0.0
52621.0,STARLINK-3984,PAYLOAD,2024-08-08 14:10:33,15.08852486,0.0001439,53.2167,344.3132,62.5647,297.5491,0.00088265,0.00013792,0.0,0 STARLINK-3984,1 52621U 22052Z   24221.59067088  .00013792  00000-0  88265-3 0  9995,2 52621  53.2167 344.3132 0001439  62.5647 297.5491 15.08852486123717,6917.842,95.437,540.703,538.712,0.0
52621.0,STARLINK-3984,PAYLOAD,2024-08-08 15:45:56,15.08850367,0.0001239,53.2162,344.0139,88.8255,271.2879,0.00056407,8.703e-05,0.0,0 STARLINK-3984,1 52621U 22052Z   24221.65690870  .00008703  00000-0  56407-3 0  9992,2 52621  53.2162 344.0139 0001239  88.8255 271.2879 15.08850367124109,6917.849,95.437,540.571,538.857,0.0
52621.0,STARLINK-3984,PAYLOAD,2024-08-09 12:25:57,15.08837031,0.0001316,53.216,340.1473,94.5773,265.5369,-0.00010347,-1.934e-05,0.0,0 STARLINK-3984,1 52621U 22052Z   24222.51802816 -.00001934  00000-0 -10347-3 0  9997,2 52621  53.2160 340.1473 0001316  94.5773 265.5369 15.08837031124237,6917.889,95.438,540.665,538.844,0.0
52621.0,STARLINK-3984,PAYLOAD,2024-08-09 14:01:20,15.08835602,9.3e-05,53.2156,339.8522,94.4034,265.7064,-0.00014867,-2.653e-05,0.0,0 STARLINK-3984,1 52621U 22052Z   24222.58426782 -.00002653  00000-0 -14867-3 0  9998,2 52621  53.2156 339.8522 0000930  94.4034 265.7064 15.08835602123866,6917.894,95.438,540.402,539.115,0.0
52621.0,STARLINK-3984,PAYLOAD,2024-08-09 17:12:06,15.08857527,0.0001268,53.2164,339.2569,96.388,263.7256,0.00076895,0.00011977,0.0,0 STARLINK-3984,1 52621U 22052Z   24222.71674511  .00011977  00000-0  76895-3 0  9994,2 52621  53.2164 339.2569 0001268  96.3880 263.7256 15.08857527124261,6917.827,95.436,540.569,538.815,0.0
52621.0,STARLINK-3984,PAYLOAD,2024-08-10 12:16:44,15.08849051,0.0001441,53.2166,335.682,113.6155,246.4989,0.00067938,0.00010544,0.0,0 STARLINK-3984,1 52621U 22052Z   24223.51162243  .00010544  00000-0  67938-3 0  9994,2 52621  53.2166 335.6820 0001441 113.6155 246.4989 15.08849051124381,6917.853,95.437,540.715,538.721,0.0
52621.0,STARLINK-3984,PAYLOAD,2024-08-10 13:52:07,15.08844257,0.0001413,53.217,335.3866,98.3612,261.754,0.00048411,7.426e-05,0.0,0 STARLINK-3984,1 52621U 22052Z   24223.57786401  .00007426  00000-0  48411-3 0  9998,2 52621  53.2170 335.3866 0001413  98.3612 261.7540 15.08844257124015,6917.867,95.437,540.71,538.755,0.0
52621.0,STARLINK-3984,PAYLOAD,2024-08-11 10:32:08,15.08821084,0.0001333,53.2172,331.5256,91.7854,268.3291,-0.00036539,-6.095e-05,0.0,0 STARLINK-3984,1 52621U 22052Z   24224.43899042 -.00006095  00000-0 -36539-3 0  9991,2 52621  53.2172 331.5256 0001333  91.7854 268.3291 15.08821084124529,6917.938,95.439,540.725,538.881,0.0
52621.0,STARLINK-3984,PAYLOAD,2024-08-11 13:42:54,15.08828149,0.0001593,53.2175,330.9268,112.6456,247.4705,-0.00014897,-2.657e-05,0.0,0 STARLINK-3984,1 52621U 22052Z   24224.57146908 -.00002657  00000-0 -14897-3 0  9995,2 52621  53.2175 330.9268 0001593 112.6456 247.4705 15.08828149124164,6917.917,95.438,540.884,538.68,0.0
52621.0,STARLINK-3984,PAYLOAD,2024-08-12 10:22:55,15.08844437,0.0001312,53.2171,327.059,105.5371,254.5766,0.00051116,7.858e-05,0.0,0 STARLINK-3984,1 52621U 22052Z   24225.43258839  .00007858  00000-0  51116-3 0  9999,2 52621  53.2171 327.0590 0001312 105.5371 254.5766 15.08844437124671,6917.867,95.437,540.639,538.824,0.0
52621.0,STARLINK-3984,PAYLOAD,2024-08-12 18:19:50,15.08883106,0.0001895,53.2162,325.5793,100.8629,259.2577,0.0016427,0.00025983,0.0,0 STARLINK-3984,1 52621U 22052Z   24225.76377781  .00025983  00000-0  16427-2 0  9997,2 52621  53.2162 325.5793 0001895 100.8629 259.2577 15.08883106124723,6917.749,95.435,540.925,538.303,0.0
52621.0,STARLINK-3984,PAYLOAD,2024-08-13 13:24:28,15.08813709,0.0001453,53.2149,322.0048,97.5561,262.5597,-0.0016351,-0.00026198,0.0,0 STARLINK-3984,1 52621U 22052Z   24226.55865913 -.00026198  00000-0 -16351-2 0  9991,2 52621  53.2149 322.0048 0001453  97.5561 262.5597 15.08813709124844,6917.961,95.439,540.831,538.821,0.0
52621.0,STARLINK-3984,PAYLOAD,2024-08-13 16:35:14,15.08805196,0.0001255,53.2183,321.4138,95.4321,264.6815,-0.0017683,-0.00028293,0.0,0 STARLINK-3984,1 52621U 22052Z   24226.69114281 -.00028293  00000-0 -17683-2 0  9998,2 52621  53.2183 321.4138 0001255  95.4321 264.6815 15.08805196124483,6917.987,95.44,540.72,538.984,0.0
52621.0,STARLINK-3984,PAYLOAD,2024-08-14 06:53:44,15.08804867,8.21e-05,53.2168,318.7379,117.6242,242.4834,-0.00054786,-8.988e-05,0.0,0 STARLINK-3984,1 52621U 22052Z   24227.28731641 -.00008988  00000-0 -54786-3 0  9994,2 52621  53.2168 318.7379 0000821 117.6242 242.4834 15.08804867124950,6917.988,95.44,540.421,539.285,0.0
52621.0,STARLINK-3984,PAYLOAD,2024-08-14 13:15:16,15.0882544,0.0001253,53.2161,317.5497,100.6675,259.4458,0.00039596,6.017e-05,0.0,0 STARLINK-3984,1 52621U 22052Z   24227.55227828  .00006017  00000-0  39596-3 0  9992,2 52621  53.2161 317.5497 0001253 100.6675 259.4458 15.08825440124997,6917.925,95.438,540.657,538.923,0.0
52621.0,STARLINK-3984,PAYLOAD,2024-08-14 22:47:35,15.08846435,0.0001357,53.2162,315.7649,92.6389,267.4758,0.0014878,0.00023474,0.0,0 STARLINK-3984,1 52621U 22052Z   24227.94972143  .00023474  00000-0  14878-2 0  9993,2 52621  53.2162 315.7649 0001357  92.6389 267.4758 15.08846435124678,6917.861,95.437,540.664,538.787,0.0
52621.0,STARLINK-3984,PAYLOAD,2024-08-15 09:55:17,15.08846279,0.0001873,53.2187,313.6862,102.3286,257.7915,0.00048078,7.373e-05,0.0,0 STARLINK-3984,1 52621U 22052Z   24228.41340186  .00007373  00000-0  48078-3 0  9992,2 52621  53.2187 313.6862 0001873 102.3286 257.7915 15.08846279124748,6917.861,95.437,541.022,538.43,0.0
52621.0,STARLINK-3984,PAYLOAD,2024-08-15 22:38:22,15.0886283,0.0002228,53.2166,311.3028,76.3382,283.7858,0.00077427,0.00012064,0.0,0 STARLINK-3984,1 52621U 22052Z   24228.94331674  .00012064  00000-0  77427-3 0  9995,2 52621  53.2166 311.3028 0002228  76.3382 283.7858 15.08862830124821,6917.811,95.436,541.217,538.134,0.0
52621.0,STARLINK-3984,PAYLOAD,2024-08-16 09:46:04,15.08847221,0.0001517,53.217,309.2256,87.8849,272.2317,0.00038417,5.833e-05,0.0,0 STARLINK-3984,1 52621U 22052Z   24229.40699492  .00005833  00000-0  38417-3 0  9994,2 52621  53.2170 309.2256 0001517  87.8849 272.2317 15.08847221125270,6917.858,95.437,540.773,538.674,0.0
52621.0,STARLINK-3984,PAYLOAD,2024-08-18 04:41:29,15.08846789,0.0001406,53.2159,301.1957,80.5258,279.5893,0.00042957,6.557e-05,0.0,0 STARLINK-3984,1 52621U 22052Z   24231.19548025  .00006557  00000-0  42957-3 0  9996,2 52621  53.2159 301.1957 0001406  80.5258 279.5893 15.08846789125544,6917.86,95.437,540.697,538.752,0.0
52621.0,STARLINK-3984,PAYLOAD,2024-08-18 11:03:01,15.08851338,0.0001651,53.2156,300.0063,95.2285,264.8895,0.00043504,6.645e-05,0.0,0 STARLINK-3984,1 52621U 22052Z   24231.46043738  .00006645  00000-0  43504-3 0  9994,2 52621  53.2156 300.0063 0001651  95.2285 264.8895 15.08851338125200,6917.846,95.437,540.853,538.569,0.0
52621.0,STARLINK-3984,PAYLOAD,2024-08-19 10:53:48,15.08840216,0.000142,53.2152,295.5397,92.9556,267.1599,7.5845e-05,9.19e-06,0.0,0 STARLINK-3984,1 52621U 22052Z   24232.45403736  .00000919  00000-0  75845-4 0  9994,2 52621  53.2152 295.5397 0001420  92.9556 267.1599 15.08840216125731,6917.88,95.438,540.727,538.762,0.0
52621.0,STARLINK-3984,PAYLOAD,2024-08-19 12:29:11,15.08847805,0.0001476,53.2151,295.2456,67.558,292.5569,-0.00042443,-7.038e-05,0.0,0 STARLINK-3984,1 52621U 22052Z   24232.52027324 -.00007038  00000-0 -42443-3 0  9995,2 52621  53.2151 295.2456 0001476  67.5580 292.5569 15.08847805125368,6917.857,95.437,540.743,538.7,0.0
52621.0,STARLINK-3984,PAYLOAD,2024-08-20 07:33:49,15.08844218,0.0001494,53.2147,291.6768,78.0637,282.0522,-9.4072e-06,-4.38e-06,0.0,0 STARLINK-3984,1 52621U 22052Z   24233.31515594 -.00000438  00000-0 -94072-5 0  9998,2 52621  53.2147 291.6768 0001494  78.0637 282.0522 15.08844218125480,6917.867,95.437,540.766,538.699,0.0
52621.0,STARLINK-3984,PAYLOAD,2024-08-21 04:13:50,15.08836333,0.0001474,53.2159,287.8106,79.2597,280.8561,0.00012087,1.636e-05,0.0,0 STARLINK-3984,1 52621U 22052Z   24234.17627809  .00001636  00000-0  12087-3 0  9999,2 52621  53.2159 287.8106 0001474  79.2597 280.8561 15.08836333125996,6917.892,95.438,540.776,538.737,0.0
